NORAD_CAT_ID,OBJECT_NAME,OBJECT_TYPE,EPOCH,MEAN_MOTION,ECCENTRICITY,INCLINATION,RA_OF_ASC_NODE,ARG_OF_PERICENTER,MEAN_ANOMALY,BSTAR,MEAN_MOTION_DOT,MEAN_MOTION_DDOT,TLE_LINE0,TLE_LINE1,TLE_LINE2,SEMIMAJOR_AXIS,PERIOD,APOGEE,PERIGEE,DECAYED
53609.0,STARLINK-4660,PAYLOAD,2023-07-24 11:54:01,15.08835699,0.0001142,53.2152,224.8082,89.4288,270.6835,1.798e-05,-2e-08,0.0,0 STARLINK-4660,1 53609U 22104X   23205.49585314 -.00000002  00000-0  17980-4 0  9995,2 53609  53.2152 224.8082 0001142  89.4288 270.6835 15.08835699 50196,6917.894,95.438,540.549,538.969,0.0
53609.0,STARLINK-4660,PAYLOAD,2023-07-25 13:20:11,15.08842806,0.000109,53.2153,220.0501,90.0906,270.0211,0.00010015,1.307e-05,0.0,0 STARLINK-4660,1 53609U 22104X   23206.55569187  .00001307  00000-0  10015-3 0  9992,2 53609  53.2153 220.0501 0001090  90.0906 270.0211 15.08842806 51043,6917.872,95.437,540.491,538.983,0.0
53609.0,STARLINK-4660,PAYLOAD,2023-07-26 10:00:13,15.08836062,0.0001373,53.215,216.1858,74.6698,285.4446,0.00010042,1.31e-05,0.0,0 STARLINK-4660,1 53609U 22104X   23207.41682000  .00001310  00000-0  10042-3 0  9992,2 53609  53.2150 216.1858 0001373  74.6698 285.4446 15.08836062 51172,6917.892,95.438,540.707,538.808,0.0
53609.0,STARLINK-4660,PAYLOAD,2023-07-27 00:18:40,15.08844404,0.000114,53.216,213.5075,90.35,269.7623,0.0001076,1.425e-05,0.0,0 STARLINK-4660,1 53609U 22104X   23208.01297277  .00001425  00000-0  10760-3 0  9991,2 53609  53.2160 213.5075 0001140  90.3500 269.7623 15.08844404 50578,6917.867,95.437,540.521,538.943,0.0
53609.0,STARLINK-4660,PAYLOAD,2023-07-27 11:26:22,15.08849283,0.0001174,53.2159,211.4262,87.1641,272.9485,0.00013746,1.901e-05,0.0,0 STARLINK-4660,1 53609U 22104X   23208.47664811  .00001901  00000-0  13746-3 0  9999,2 53609  53.2159 211.4262 0001174  87.1641 272.9485 15.08849283 51335,6917.852,95.437,540.529,538.905,0.0
53609.0,STARLINK-4660,PAYLOAD,2023-07-28 00:09:28,15.08837227,0.0001342,53.2147,209.0491,73.9549,286.1591,6.7786e-05,7.91e-06,0.0,0 STARLINK-4660,1 53609U 22104X   23209.00657759  .00000791  00000-0  67786-4 0  9992,2 53609  53.2147 209.0491 0001342  73.9549 286.1591 15.08837227 50728,6917.889,95.438,540.682,538.825,0.0
53609.0,STARLINK-4660,PAYLOAD,2023-07-28 11:17:10,15.08838816,0.0001193,53.2157,206.9657,88.515,271.5979,5.8227e-05,6.39e-06,0.0,0 STARLINK-4660,1 53609U 22104X   23209.47025683  .00000639  00000-0  58227-4 0  9999,2 53609  53.2157 206.9657 0001193  88.5150 271.5979 15.08838816 51480,6917.884,95.438,540.574,538.924,0.0
53609.0,STARLINK-4660,PAYLOAD,2023-07-29 03:11:01,15.08842254,0.0001245,53.2157,203.9916,91.0456,269.0679,2.8045e-05,1.59e-06,0.0,0 STARLINK-4660,1 53609U 22104X   23210.13265486  .00000159  00000-0  28045-4 0  9993,2 53609  53.2157 203.9916 0001245  91.0456 269.0679 15.08842254 50895,6917.873,95.437,540.6,538.877,0.0
53609.0,STARLINK-4660,PAYLOAD,2023-07-30 03:01:47,15.08850524,0.0001155,53.216,199.5319,87.3853,272.7271,0.00018282,2.624e-05,0.0,0 STARLINK-4660,1 53609U 22104X   23211.12624241  .00002624  00000-0  18282-3 0  9991,2 53609  53.2160 199.5319 0001155  87.3853 272.7271 15.08850524 51041,6917.848,95.437,540.512,538.914,0.0
53609.0,STARLINK-4660,PAYLOAD,2023-07-30 06:12:33,15.08858382,0.0001203,53.2162,198.9371,88.3707,271.7423,0.0002479,3.662e-05,0.0,0 STARLINK-4660,1 53609U 22104X   23211.25871622  .00003662  00000-0  24790-3 0  9996,2 53609  53.2162 198.9371 0001203  88.3707 271.7423 15.08858382 51067,6917.824,95.436,540.521,538.857,0.0
53609.0,STARLINK-4660,PAYLOAD,2023-07-30 15:44:53,15.08832646,0.0001327,53.2151,197.1529,88.8401,271.2743,-0.00012563,-2.286e-05,0.0,0 STARLINK-4660,1 53609U 22104X   23211.65617174 -.00002286  00000-0 -12563-3 0  9998,2 53609  53.2151 197.1529 0001327  88.8401 271.2743 15.08832646 51126,6917.903,95.438,540.686,538.85,0.0
53609.0,STARLINK-4660,PAYLOAD,2023-07-31 09:14:07,15.08843709,0.0001023,53.2145,193.8821,102.6595,257.4512,-4.0898e-05,-9.39e-06,0.0,0 STARLINK-4660,1 53609U 22104X   23212.38480326 -.00000939  00000-0 -40898-4 0  9992,2 53609  53.2145 193.8821 0001023 102.6595 257.4512 15.08843709 51233,6917.869,95.437,540.442,539.026,0.0
53609.0,STARLINK-4660,PAYLOAD,2023-08-01 02:43:22,15.08821486,0.0001418,53.2147,190.6106,79.9462,280.169,-6.1783e-06,-3.86e-06,0.0,0 STARLINK-4660,1 53609U 22104X   23213.11345731 -.00000386  00000-0 -61783-5 0  9997,2 53609  53.2147 190.6106 0001418  79.9462 280.1690 15.08821486 51343,6917.937,95.439,540.783,538.821,0.0
53609.0,STARLINK-4660,PAYLOAD,2023-08-01 21:48:00,15.08831911,9.62e-05,53.2146,187.0425,98.5881,261.522,0.00027468,4.086e-05,0.0,0 STARLINK-4660,1 53609U 22104X   23213.90834193  .00004086  00000-0  27468-3 0  9998,2 53609  53.2146 187.0425 0000962  98.5881 261.5220 15.08831911 51460,6917.905,95.438,540.436,539.105,0.0
53609.0,STARLINK-4660,PAYLOAD,2023-08-03 02:24:57,15.08839368,0.0001093,53.2154,181.6904,91.1929,268.9188,0.00026975,4.008e-05,0.0,0 STARLINK-4660,1 53609U 22104X   23215.10066579  .00004008  00000-0  26975-3 0  9993,2 53609  53.2154 181.6904 0001093  91.1929 268.9188 15.08839368 51647,6917.882,95.438,540.503,538.991,0.0
53609.0,STARLINK-4660,PAYLOAD,2023-08-04 02:15:44,15.08836687,0.0001133,53.2155,177.2292,85.6653,274.4469,0.0001022,1.339e-05,0.0,0 STARLINK-4660,1 53609U 22104X   23216.09427009  .00001339  00000-0  10220-3 0  9991,2 53609  53.2155 177.2292 0001133  85.6653 274.4469 15.08836687 51797,6917.891,95.438,540.539,538.972,0.0
53609.0,STARLINK-4660,PAYLOAD,2023-08-05 02:06:31,15.0885246,0.0001244,53.2162,172.7686,82.5762,277.5371,0.00021099,3.073e-05,0.0,0 STARLINK-4660,1 53609U 22104X   23217.08786366  .00003073  00000-0  21099-3 0  9998,2 53609  53.2162 172.7686 0001244  82.5762 277.5371 15.08852460 51942,6917.842,95.437,540.568,538.847,0.0
53609.0,STARLINK-4660,PAYLOAD,2023-08-06 01:57:18,15.0884916,0.000119,53.2159,168.3031,106.7168,253.3954,0.00020488,2.975e-05,0.0,0 STARLINK-4660,1 53609U 22104X   23218.08145958  .00002975  00000-0  20488-3 0  9996,2 53609  53.2159 168.3031 0001190 106.7168 253.3954 15.08849160 52091,6917.852,95.437,540.541,538.894,0.0
53609.0,STARLINK-4660,PAYLOAD,2023-08-07 03:23:29,15.08834839,9.87e-05,53.2155,163.5487,90.3137,269.7968,-0.00011045,-2.045e-05,0.0,0 STARLINK-4660,1 53609U 22104X   23219.14131543 -.00002045  00000-0 -11045-3 0  9998,2 53609  53.2155 163.5487 0000987  90.3137 269.7968 15.08834839 52257,6917.896,95.438,540.444,539.078,0.0
53609.0,STARLINK-4660,PAYLOAD,2023-08-08 03:14:15,15.08853193,0.0001665,53.2164,159.0919,120.2222,239.8935,0.00011423,1.531e-05,0.0,0 STARLINK-4660,1 53609U 22104X   23220.13490067  .00001531  00000-0  11423-3 0  9995,2 53609  53.2164 159.0919 0001665 120.2222 239.8935 15.08853193 52402,6917.84,95.437,540.857,538.553,0.0
53609.0,STARLINK-4660,PAYLOAD,2023-08-08 12:46:34,15.08843346,0.0001015,53.2152,157.306,107.8728,252.2375,0.00026815,3.983e-05,0.0,0 STARLINK-4660,1 53609U 22104X   23220.53234727  .00003983  00000-0  26815-3 0  9992,2 53609  53.2152 157.3060 0001015 107.8728 252.2375 15.08843346 52460,6917.87,95.437,540.437,539.033,0.0
53609.0,STARLINK-4660,PAYLOAD,2023-08-09 04:40:26,15.08837127,0.0001029,53.2157,154.3328,109.4894,250.621,0.00012422,1.69e-05,0.0,0 STARLINK-4660,1 53609U 22104X   23221.19475073  .00001690  00000-0  12422-3 0  9998,2 53609  53.2157 154.3328 0001029 109.4894 250.6210 15.08837127 52567,6917.889,95.438,540.466,539.042,0.0
53609.0,STARLINK-4660,PAYLOAD,2023-08-10 12:28:09,15.08838514,0.0001159,53.2168,148.3859,99.3984,260.7139,6.7305e-05,7.83e-06,0.0,0 STARLINK-4660,1 53609U 22104X   23222.51955335  .00000783  00000-0  67305-4 0  9992,2 53609  53.2168 148.3859 0001159  99.3984 260.7139 15.08838514 52767,6917.885,95.438,540.552,538.948,0.0
53609.0,STARLINK-4660,PAYLOAD,2023-08-11 04:22:00,15.08844885,0.0001255,53.2154,145.4128,88.6245,271.4891,0.00010699,1.415e-05,0.0,0 STARLINK-4660,1 53609U 22104X   23223.18194701  .00001415  00000-0  10699-3 0  9994,2 53609  53.2154 145.4128 0001255  88.6245 271.4891 15.08844885 52860,6917.865,95.437,540.599,538.862,0.0
53609.0,STARLINK-4660,PAYLOAD,2023-08-11 18:40:29,15.08834734,0.0001692,53.2081,142.7343,90.4586,269.66,3.7606e-05,3.1e-06,0.0,0 STARLINK-4660,1 53609U 22104X   23223.77811708  .00000310  00000-0  37606-4 0  9993,2 53609  53.2081 142.7343 0001692  90.4586 269.6600 15.08834734 52951,6917.896,95.438,540.932,538.591,0.0
53609.0,STARLINK-4660,PAYLOAD,2023-08-12 04:12:47,15.08840401,0.0001478,53.2167,140.9526,64.8505,295.2641,8.2317e-05,1.022e-05,0.0,0 STARLINK-4660,1 53609U 22104X   23224.17555412  .00001022  00000-0  82317-4 0  9995,2 53609  53.2167 140.9526 0001478  64.8505 295.2641 15.08840401 53013,6917.879,95.438,540.767,538.722,0.0
53609.0,STARLINK-4660,PAYLOAD,2023-08-14 00:43:36,15.08833032,0.0001197,53.217,132.6265,87.2913,272.8216,0.00011407,1.528e-05,0.0,0 STARLINK-4660,1 53609U 22104X   23226.03027855  .00001528  00000-0  11407-3 0  9999,2 53609  53.2170 132.6265 0001197  87.2913 272.8216 15.08833032 53296,6917.902,95.438,540.595,538.939,0.0
53609.0,STARLINK-4660,PAYLOAD,2023-08-14 03:54:21,15.08841012,0.0001199,53.2168,132.0323,90.0506,270.0623,9.7755e-05,1.268e-05,0.0,0 STARLINK-4660,1 53609U 22104X   23226.16275296  .00001268  00000-0  97755-4 0  9999,2 53609  53.2168 132.0323 0001199  90.0506 270.0623 15.08841012 53316,6917.877,95.437,540.572,538.913,0.0
53609.0,STARLINK-4660,PAYLOAD,2023-08-15 18:03:37,15.08838952,0.0001335,53.2173,124.8958,96.0924,264.022,6.3817e-05,7.28e-06,0.0,0 STARLINK-4660,1 53609U 22104X   23227.75251919  .00000728  00000-0  63817-4 0  9993,2 53609  53.2173 124.8958 0001335  96.0924 264.0220 15.08838952 53558,6917.884,95.438,540.672,538.825,0.0
53609.0,STARLINK-4660,PAYLOAD,2023-08-16 02:00:32,15.08847506,0.0001315,53.217,123.4085,94.4961,265.6181,0.00012964,1.776e-05,0.0,0 STARLINK-4660,1 53609U 22104X   23228.08371189  .00001776  00000-0  12964-3 0  9992,2 53609  53.2170 123.4085 0001315  94.4961 265.6181 15.08847506 53606,6917.857,95.437,540.632,538.813,0.0
